{"type":"FeatureCollection","features":[{"type":"Feature","properties":{"scene_id":"C1_20260127014932_26932_00467237","date_acquired":"2026-01-27","orbit_number":"26932","control_rmse_m":0.6775677794615448},"geometry":{"type":"Polygon","coordinates":[[[127.384784961,36.857803687],[127.536123964,36.8808658],[127.561844651,36.77468369],[127.410717459,36.751631771],[127.384784961,36.857803687]]]}},{"type":"Feature","properties":{"scene_id":"C1_20260102013153_26552_00473751","date_acquired":"2026-01-02","orbit_number":"26552","control_rmse_m":1.2227403191110255},"geometry":{"type":"Polygon","coordinates":[[[127.682530994,36.910855884],[127.841358503,36.940656352],[127.872929812,36.835521152],[127.714314717,36.805753412],[127.682530994,36.910855884]]]}}]}