{
  "type": "FeatureCollection",
  "metadata": {
    "source": "N3L_C0050000.shp",
    "source_crs": "EPSG:5179",
    "candidate_id": "43150:다락골천:10",
    "candidate_rank": 10,
    "max_distance_m": 20.0,
    "feature_count": 40,
    "intersecting_count": 38,
    "total_length_m": 3423.438,
    "inside_zone_length_m": 2776.323,
    "inside_length_ratio": 0.811
  },
  "features": [
    {
      "type": "Feature",
      "properties": {
        "UFID": "100037813085C00510100000001021709",
        "NAME": "",
        "DIVI": "BKD001",
        "QUAL": "BKQ004",
        "UDDI": "BKU001",
        "LENG": 40.2000007629,
        "HEIG": 2.0,
        "SCLS": "C0052211",
        "FMTA": "R23121709",
        "distance_to_zone_m": 0.0,
        "inside_zone_length_m": 40.185
      },
      "geometry": {
        "type": "LineString",
        "coordinates": [
          [
            128.12170830823956,
            37.045668052221664
          ],
          [
            128.1215705712086,
            37.045668375488944
          ],
          [
            128.12153216330037,
            37.045670037007454
          ],
          [
            128.12142758080375,
            37.04567373080425
          ],
          [
            128.12132659555192,
            37.045676435740695
          ],
          [
            128.12125673209127,
            37.045679531100696
          ]
        ]
      }
    },
    {
      "type": "Feature",
      "properties": {
        "UFID": "100037813076C00510100000001021743",
        "NAME": "",
        "DIVI": "BKD001",
        "QUAL": "BKQ001",
        "UDDI": "BKU001",
        "LENG": 63.2999992371,
        "HEIG": 2.0,
        "SCLS": "C0052211",
        "FMTA": "R23121743",
        "distance_to_zone_m": 0.0,
        "inside_zone_length_m": 62.167
      },
      "geometry": {
        "type": "LineString",
        "coordinates": [
          [
            128.1329228720515,
            37.05326179575677
          ],
          [
            128.13299558778087,
            37.053216507169026
          ],
          [
            128.13303279869265,
            37.05319677665266
          ],
          [
            128.13305246662634,
            37.0531872789082
          ],
          [
            128.13307797340025,
            37.05317854505391
          ],
          [
            128.13313824501364,
            37.0531575412279
          ],
          [
            128.13322679161752,
            37.05313124655554
          ],
          [
            128.1333175268222,
            37.05311037389111
          ],
          [
            128.13338004691474,
            37.05309929699211
          ],
          [
            128.13346306851074,
            37.05309431776545
          ],
          [
            128.1335727439383,
            37.053088451562516
          ]
        ]
      }
    },
    {
      "type": "Feature",
      "properties": {
        "UFID": "100037813076C00510100000001021765",
        "NAME": "",
        "DIVI": "BKD001",
        "QUAL": "BKQ001",
        "UDDI": "BKU001",
        "LENG": 137.940002441,
        "HEIG": 2.0,
        "SCLS": "C0052211",
        "FMTA": "R23121765",
        "distance_to_zone_m": 0.0,
        "inside_zone_length_m": 134.879
      },
      "geometry": {
        "type": "LineString",
        "coordinates": [
          [
            128.13617330004553,
            37.05586796436676
          ],
          [
            128.13617453547857,
            37.05587274067125
          ],
          [
            128.13617581216752,
            37.05591182746974
          ],
          [
            128.13617661951412,
            37.055984957074045
          ],
          [
            128.13617641875956,
            37.05604847754773
          ],
          [
            128.1361718637845,
            37.05609509993249
          ],
          [
            128.13617394367904,
            37.05615589580459
          ],
          [
            128.13617911331266,
            37.05621603780319
          ],
          [
            128.13618615041216,
            37.05627178708662
          ],
          [
            128.13620782239468,
            37.056341969827734
          ],
          [
            128.13621983369214,
            37.05641976007008
          ],
          [
            128.13622587515374,
            37.05646698456069
          ],
          [
            128.1362321389139,
            37.05651389146028
          ],
          [
            128.13622933457748,
            37.056550749298054
          ],
          [
            128.13622098565705,
            37.05661080694595
          ],
          [
            128.1362098812746,
            37.05666117739793
          ],
          [
            128.13620175453846,
            37.056710804434324
          ],
          [
            128.1362025998514,
            37.056751699984034
          ],
          [
            128.13621342797654,
            37.05679365344463
          ],
          [
            128.13623347653316,
            37.056839243354716
          ],
          [
            128.13625973238717,
            37.05687553428294
          ],
          [
            128.13629276992023,
            37.05690369679196
          ],
          [
            128.13634982637288,
            37.05693394523665
          ],
          [
            128.13638759023806,
            37.05695647644105
          ],
          [
            128.1364230370405,
            37.0569885489635
          ],
          [
            128.13644625310712,
            37.05702499677837
          ],
          [
            128.1364485363606,
            37.05703012261634
          ]
        ]
      }
    },
    {
      "type": "Feature",
      "properties": {
        "UFID": "100037813085C00510100000001021875",
        "NAME": "",
        "DIVI": "BKD001",
        "QUAL": "BKQ004",
        "UDDI": "BKU001",
        "LENG": 104.699996948,
        "HEIG": 2.0,
        "SCLS": "C0052211",
        "FMTA": "R23121875",
        "distance_to_zone_m": 0.0,
        "inside_zone_length_m": 104.694
      },
      "geometry": {
        "type": "LineString",
        "coordinates": [
          [
            128.11407053036172,
            37.044029467493246
          ],
          [
            128.1138825135925,
            37.04387137195287
          ],
          [
            128.11382127322017,
            37.043801983647334
          ],
          [
            128.11379519213682,
            37.04374430317577
          ],
          [
            128.1137762709643,
            37.04367000490143
          ],
          [
            128.11369964329458,
            37.04355121527382
          ],
          [
            128.11363136480756,
            37.04342969437084
          ],
          [
            128.11357254509363,
            37.04333572785569
          ],
          [
            128.11349260604194,
            37.04322150739158
          ]
        ]
      }
    },
    {
      "type": "Feature",
      "properties": {
        "UFID": "100037813076C00510100000001021907",
        "NAME": "",
        "DIVI": "BKD001",
        "QUAL": "BKQ001",
        "UDDI": "BKU001",
        "LENG": 20.1000003815,
        "HEIG": 1.0,
        "SCLS": "C0052211",
        "FMTA": "R23121907",
        "distance_to_zone_m": 0.0,
        "inside_zone_length_m": 3.674
      },
      "geometry": {
        "type": "LineString",
        "coordinates": [
          [
            128.13475140215442,
            37.06533260193214
          ],
          [
            128.13467130976227,
            37.0653273028889
          ],
          [
            128.13459485838206,
            37.06533292752414
          ],
          [
            128.13452604054322,
            37.065335356313916
          ]
        ]
      }
    },
    {
      "type": "Feature",
      "properties": {
        "UFID": "100037813085C00510100000001022195",
        "NAME": "",
        "DIVI": "BKD001",
        "QUAL": "BKQ002",
        "UDDI": "BKU001",
        "LENG": 90.0999984741,
        "HEIG": 2.0,
        "SCLS": "C0052211",
        "FMTA": "R23122195",
        "distance_to_zone_m": 0.0,
        "inside_zone_length_m": 24.015
      },
      "geometry": {
        "type": "LineString",
        "coordinates": [
          [
            128.12124124508242,
            37.046389115491856
          ],
          [
            128.12124223051748,
            37.04635244952962
          ],
          [
            128.12123556096023,
            37.046307078062156
          ],
          [
            128.12122809507727,
            37.04626224079938
          ],
          [
            128.12122048475266,
            37.046220377179424
          ],
          [
            128.12120706113322,
            37.04618549575839
          ],
          [
            128.1211900355121,
            37.04616068223978
          ],
          [
            128.12115804881006,
            37.04615629933998
          ],
          [
            128.12110818703712,
            37.04616196711214
          ],
          [
            128.12100992457286,
            37.0461828644342
          ],
          [
            128.1209830523923,
            37.04619311723442
          ],
          [
            128.12099265744988,
            37.046227789707494
          ],
          [
            128.1210060769205,
            37.0462729401658
          ],
          [
            128.1210263702618,
            37.04632616202378
          ],
          [
            128.12104229121525,
            37.04637854140137
          ],
          [
            128.1210566034526,
            37.04643388225356
          ],
          [
            128.12106630847256,
            37.046489097585805
          ],
          [
            128.12107655244318,
            37.04653647854766
          ],
          [
            128.12108335777657,
            37.046589689873635
          ]
        ]
      }
    },
    {
      "type": "Feature",
      "properties": {
        "UFID": "100037813076C00510100000001022253",
        "NAME": "",
        "DIVI": "BKD001",
        "QUAL": "BKQ001",
        "UDDI": "BKU001",
        "LENG": 54.4000015259,
        "HEIG": 2.0,
        "SCLS": "C0052211",
        "FMTA": "R23122253",
        "distance_to_zone_m": 0.0,
        "inside_zone_length_m": 25.776
      },
      "geometry": {
        "type": "LineString",
        "coordinates": [
          [
            128.13581423784095,
            37.06625516433554
          ],
          [
            128.13577408861676,
            37.06622513878144
          ],
          [
            128.13571566379508,
            37.06618364236794
          ],
          [
            128.13568376820254,
            37.066160551322774
          ],
          [
            128.13564601518445,
            37.06614537365318
          ],
          [
            128.13560566624594,
            37.066131031974486
          ],
          [
            128.13555035251912,
            37.06612157321719
          ],
          [
            128.135482356064,
            37.066108201721356
          ],
          [
            128.135417524841,
            37.066102096684936
          ],
          [
            128.1353289134502,
            37.066086187165936
          ],
          [
            128.13526550137243,
            37.06607004707558
          ]
        ]
      }
    },
    {
      "type": "Feature",
      "properties": {
        "UFID": "100037813085C00510100000001022271",
        "NAME": "",
        "DIVI": "BKD001",
        "QUAL": "BKQ004",
        "UDDI": "BKU001",
        "LENG": 40.2000007629,
        "HEIG": 2.0,
        "SCLS": "C0052211",
        "FMTA": "R23122271",
        "distance_to_zone_m": 0.0,
        "inside_zone_length_m": 40.205
      },
      "geometry": {
        "type": "LineString",
        "coordinates": [
          [
            128.11442472240952,
            37.044784215144
          ],
          [
            128.1144264827553,
            37.04475845781497
          ],
          [
            128.11442545016513,
            37.044750611778596
          ],
          [
            128.1143660345878,
            37.04461086555649
          ],
          [
            128.11429981664332,
            37.04443773160175
          ]
        ]
      }
    },
    {
      "type": "Feature",
      "properties": {
        "UFID": "100037813076C00510100000001022523",
        "NAME": "",
        "DIVI": "BKD001",
        "QUAL": "BKQ001",
        "UDDI": "BKU001",
        "LENG": 83.6999969482,
        "HEIG": 2.0,
        "SCLS": "C0052211",
        "FMTA": "R23122523",
        "distance_to_zone_m": 0.0,
        "inside_zone_length_m": 74.078
      },
      "geometry": {
        "type": "LineString",
        "coordinates": [
          [
            128.13585661929872,
            37.067018035744375
          ],
          [
            128.13589847958013,
            37.06695168155285
          ],
          [
            128.1359255787064,
            37.06690196191762
          ],
          [
            128.13593084764955,
            37.06688957523628
          ],
          [
            128.1359318770805,
            37.06686817367239
          ],
          [
            128.13593378234305,
            37.06684496818359
          ],
          [
            128.13593673212907,
            37.06681591230381
          ],
          [
            128.1359425388161,
            37.066781706633115
          ],
          [
            128.13595415114702,
            37.06674335216045
          ],
          [
            128.13597238296174,
            37.06668919640385
          ],
          [
            128.1359764375988,
            37.06666987171038
          ],
          [
            128.13597412406008,
            37.06664390526257
          ],
          [
            128.135946611596,
            37.066543589789546
          ],
          [
            128.1359128518462,
            37.06640933157095
          ],
          [
            128.13587481443315,
            37.06629030498774
          ]
        ]
      }
    },
    {
      "type": "Feature",
      "properties": {
        "UFID": "100037813076C00510100000001022542",
        "NAME": "",
        "DIVI": "BKD001",
        "QUAL": "BKQ001",
        "UDDI": "BKU001",
        "LENG": 275.690002441,
        "HEIG": 2.0,
        "SCLS": "C0052211",
        "FMTA": "R23122542",
        "distance_to_zone_m": 0.0,
        "inside_zone_length_m": 275.573
      },
      "geometry": {
        "type": "LineString",
        "coordinates": [
          [
            128.132955605658,
            37.053278483970196
          ],
          [
            128.13302322604392,
            37.05324842138826
          ],
          [
            128.13309146607722,
            37.05321890172134
          ],
          [
            128.1331503273654,
            37.05319545806117
          ],
          [
            128.13323520906542,
            37.05317136888505
          ],
          [
            128.13330678839955,
            37.05315055070223
          ],
          [
            128.13338768507066,
            37.05313455039672
          ],
          [
            128.13346008043192,
            37.05312883826233
          ],
          [
            128.1335202032277,
            37.05313161989609
          ],
          [
            128.13357799021637,
            37.05314158476745
          ],
          [
            128.13365028973743,
            37.053156675089824
          ],
          [
            128.1337481790756,
            37.053187765880836
          ],
          [
            128.13382509394333,
            37.053225938430856
          ],
          [
            128.1339064414932,
            37.05326725753738
          ],
          [
            128.13399685955463,
            37.053317094303324
          ],
          [
            128.13407488173846,
            37.0533641000922
          ],
          [
            128.13414942735358,
            37.0534097154943
          ],
          [
            128.13423398784627,
            37.05346447629401
          ],
          [
            128.13429933300114,
            37.053512553888
          ],
          [
            128.13434776010675,
            37.05355309499995
          ],
          [
            128.13441523606997,
            37.05360488489899
          ],
          [
            128.13448991195622,
            37.053658934870704
          ],
          [
            128.13454997913482,
            37.05370563433794
          ],
          [
            128.13459656135993,
            37.05373961116165
          ],
          [
            128.13465246760575,
            37.053781070346886
          ],
          [
            128.1347120075705,
            37.05382575156833
          ],
          [
            128.1347591160249,
            37.05385780638936
          ],
          [
            128.13480023808867,
            37.05388961558773
          ],
          [
            128.13484291082196,
            37.05392476524656
          ],
          [
            128.1348635468147,
            37.05394588414312
          ],
          [
            128.13488529852953,
            37.05397335207205
          ],
          [
            128.13491545843166,
            37.054021216485154
          ],
          [
            128.13496048456224,
            37.0540965099379
          ],
          [
            128.13499748205285,
            37.05416954953085
          ],
          [
            128.13503061719953,
            37.054225685636844
          ],
          [
            128.13503937626504,
            37.05425174295386
          ],
          [
            128.1350445058779,
            37.054288717859556
          ],
          [
            128.1350432920406,
            37.05431594361744
          ],
          [
            128.1350453687321,
            37.05432451040761
          ],
          [
            128.1350754033866,
            37.05437405118536
          ],
          [
            128.13509544816924,
            37.054397081509016
          ],
          [
            128.13515345664854,
            37.05445642146912
          ],
          [
            128.13520357851644,
            37.05450572485893
          ]
        ]
      }
    },
    {
      "type": "Feature",
      "properties": {
        "UFID": "100037813076C00510100000001022729",
        "NAME": "",
        "DIVI": "BKD001",
        "QUAL": "BKQ001",
        "UDDI": "BKU001",
        "LENG": 22.9400005341,
        "HEIG": 2.0,
        "SCLS": "C0052211",
        "FMTA": "R23122729",
        "distance_to_zone_m": 0.0,
        "inside_zone_length_m": 22.931
      },
      "geometry": {
        "type": "LineString",
        "coordinates": [
          [
            128.1269036155759,
            37.05081016409726
          ],
          [
            128.12691250751766,
            37.05084537977024
          ],
          [
            128.12691590087022,
            37.05089204549443
          ],
          [
            128.12691673133787,
            37.05094173640672
          ],
          [
            128.1269135272943,
            37.050988363076975
          ],
          [
            128.1269067223209,
            37.051015455166734
          ]
        ]
      }
    },
    {
      "type": "Feature",
      "properties": {
        "UFID": "100037813076C00510100000001022905",
        "NAME": "",
        "DIVI": "BKD001",
        "QUAL": "BKQ001",
        "UDDI": "BKU001",
        "LENG": 18.4099998474,
        "HEIG": 2.0,
        "SCLS": "C0052211",
        "FMTA": "R23122905",
        "distance_to_zone_m": 0.0,
        "inside_zone_length_m": 14.943
      },
      "geometry": {
        "type": "LineString",
        "coordinates": [
          [
            128.1365071932146,
            37.05723349702389
          ],
          [
            128.1365030916683,
            37.0571426487955
          ],
          [
            128.13650174524477,
            37.05709214050456
          ],
          [
            128.13650212148406,
            37.05706770462492
          ]
        ]
      }
    },
    {
      "type": "Feature",
      "properties": {
        "UFID": "100037813076C00510100000001022926",
        "NAME": "",
        "DIVI": "BKD001",
        "QUAL": "BKQ001",
        "UDDI": "BKU001",
        "LENG": 26.6399993896,
        "HEIG": 2.0,
        "SCLS": "C0052211",
        "FMTA": "R23122926",
        "distance_to_zone_m": 0.0,
        "inside_zone_length_m": 26.461
      },
      "geometry": {
        "type": "LineString",
        "coordinates": [
          [
            128.12684567424594,
            37.051287736243026
          ],
          [
            128.12686825696412,
            37.05123646672703
          ],
          [
            128.12692281649976,
            37.05112929521803
          ],
          [
            128.12695214370763,
            37.05106505826862
          ]
        ]
      }
    },
    {
      "type": "Feature",
      "properties": {
        "UFID": "100037813076C00510100000001023109",
        "NAME": "",
        "DIVI": "BKD001",
        "QUAL": "BKQ001",
        "UDDI": "BKU001",
        "LENG": 136.960006714,
        "HEIG": 2.0,
        "SCLS": "C0052211",
        "FMTA": "R23123109",
        "distance_to_zone_m": 0.0,
        "inside_zone_length_m": 104.257
      },
      "geometry": {
        "type": "LineString",
        "coordinates": [
          [
            128.13526021223882,
            37.05447190412613
          ],
          [
            128.13522942013475,
            37.05445389008776
          ],
          [
            128.13519577762935,
            37.05442367526822
          ],
          [
            128.135160044958,
            37.05438368041255
          ],
          [
            128.13512988641742,
            37.054339254072
          ],
          [
            128.13510217436843,
            37.05428123113693
          ],
          [
            128.13505714428047,
            37.05417620624602
          ],
          [
            128.13501213577337,
            37.054079559913774
          ],
          [
            128.13495678524706,
            37.05398336283736
          ],
          [
            128.1349091400415,
            37.0539255096397
          ],
          [
            128.1348628293499,
            37.053874206205535
          ],
          [
            128.1348088611719,
            37.05382483400548
          ],
          [
            128.13471382737788,
            37.05375864917931
          ],
          [
            128.13459284277693,
            37.053676351404064
          ],
          [
            128.1344923854113,
            37.05360858547406
          ],
          [
            128.13437675678173,
            37.05350856756832
          ],
          [
            128.1343743567868,
            37.053500061085984
          ],
          [
            128.13437506752553,
            37.05349586658588
          ]
        ]
      }
    },
    {
      "type": "Feature",
      "properties": {
        "UFID": "100037813076C00510100000001023113",
        "NAME": "",
        "DIVI": "BKD001",
        "QUAL": "BKQ001",
        "UDDI": "BKU001",
        "LENG": 52.3499984741,
        "HEIG": 2.0,
        "SCLS": "C0052211",
        "FMTA": "R23123113",
        "distance_to_zone_m": 0.0,
        "inside_zone_length_m": 41.019
      },
      "geometry": {
        "type": "LineString",
        "coordinates": [
          [
            128.13606330849046,
            37.055577837484385
          ],
          [
            128.13601845850758,
            37.055505155845246
          ],
          [
            128.13596913441754,
            37.055440541536896
          ],
          [
            128.13593719367145,
            37.05540961740977
          ],
          [
            128.13590576184086,
            37.05537376969842
          ],
          [
            128.13584957500035,
            37.05533543333971
          ],
          [
            128.13579041943413,
            37.05529350628641
          ],
          [
            128.13574203694728,
            37.05523764321985
          ],
          [
            128.13571171466813,
            37.055205353720865
          ]
        ]
      }
    },
    {
      "type": "Feature",
      "properties": {
        "UFID": "100037813076C00510100000001023150",
        "NAME": "",
        "DIVI": "BKD001",
        "QUAL": "BKQ001",
        "UDDI": "BKU001",
        "LENG": 140.88999939,
        "HEIG": 2.0,
        "SCLS": "C0052211",
        "FMTA": "R23123150",
        "distance_to_zone_m": 0.0,
        "inside_zone_length_m": 78.84
      },
      "geometry": {
        "type": "LineString",
        "coordinates": [
          [
            128.13648671856348,
            37.05702193749743
          ],
          [
            128.13647908659144,
            37.05699383975289
          ],
          [
            128.13644337419117,
            37.05694289836841
          ],
          [
            128.13639222120065,
            37.05690145602858
          ],
          [
            128.13634632040967,
            37.05687654545978
          ],
          [
            128.13631084442528,
            37.056852012538094
          ],
          [
            128.13628997525808,
            37.056823990289914
          ],
          [
            128.13627281506845,
            37.05678501573528
          ],
          [
            128.13626040442142,
            37.056732284388616
          ],
          [
            128.13625971742914,
            37.05667007844551
          ],
          [
            128.13626977555006,
            37.05659637586313
          ],
          [
            128.13627963327772,
            37.05653517883827
          ],
          [
            128.13627987553397,
            37.05649590091009
          ],
          [
            128.13627535084578,
            37.056433000723345
          ],
          [
            128.13625863405397,
            37.056332083678505
          ],
          [
            128.13623333748137,
            37.056198904884944
          ],
          [
            128.13622655365347,
            37.05614062486351
          ],
          [
            128.1362284215122,
            37.056070004887474
          ],
          [
            128.13623421612928,
            37.05597235913758
          ],
          [
            128.13623247899733,
            37.05590682086352
          ],
          [
            128.13622560780914,
            37.05585585542224
          ],
          [
            128.13620752793543,
            37.055825375348434
          ]
        ]
      }
    },
    {
      "type": "Feature",
      "properties": {
        "UFID": "100037813076C00510100000001023341",
        "NAME": "",
        "DIVI": "BKD001",
        "QUAL": "BKQ001",
        "UDDI": "BKU001",
        "LENG": 145.789993286,
        "HEIG": 2.0,
        "SCLS": "C0052211",
        "FMTA": "R23123341",
        "distance_to_zone_m": 0.0,
        "inside_zone_length_m": 145.73
      },
      "geometry": {
        "type": "LineString",
        "coordinates": [
          [
            128.13062352101483,
            37.05250887970953
          ],
          [
            128.13056497454343,
            37.052450650903346
          ],
          [
            128.1304647286619,
            37.05235561695822
          ],
          [
            128.13037810311118,
            37.052266635701116
          ],
          [
            128.13029011718945,
            37.052169389275335
          ],
          [
            128.130234519364,
            37.05210903621344
          ],
          [
            128.13017000969015,
            37.05204865384304
          ],
          [
            128.13011422953548,
            37.051998055956915
          ],
          [
            128.13003307925499,
            37.051937605948716
          ],
          [
            128.12992032177698,
            37.05185860843344
          ],
          [
            128.1297706390479,
            37.05176272041661
          ],
          [
            128.12971920193064,
            37.05172686184121
          ],
          [
            128.1296528290418,
            37.051693790381854
          ],
          [
            128.1295871416857,
            37.05167589966764
          ],
          [
            128.12952118226548,
            37.051662101906196
          ],
          [
            128.12946239123795,
            37.05166041270861
          ],
          [
            128.12943466237218,
            37.051661670381975
          ]
        ]
      }
    },
    {
      "type": "Feature",
      "properties": {
        "UFID": "100037813076C00510100000001023381",
        "NAME": "",
        "DIVI": "BKD001",
        "QUAL": "BKQ001",
        "UDDI": "BKU001",
        "LENG": 17.0300006866,
        "HEIG": 2.0,
        "SCLS": "C0052211",
        "FMTA": "R23123381",
        "distance_to_zone_m": 0.0,
        "inside_zone_length_m": 17.023
      },
      "geometry": {
        "type": "LineString",
        "coordinates": [
          [
            128.13646633398955,
            37.05708372375225
          ],
          [
            128.13646702934182,
            37.05710583994008
          ],
          [
            128.1364703879183,
            37.05717534024739
          ],
          [
            128.1364702805623,
            37.05722685150446
          ],
          [
            128.13646988704934,
            37.05723710184709
          ]
        ]
      }
    },
    {
      "type": "Feature",
      "properties": {
        "UFID": "100037813076C00510100000001023449",
        "NAME": "",
        "DIVI": "BKD001",
        "QUAL": "BKQ001",
        "UDDI": "BKU001",
        "LENG": 127.199996948,
        "HEIG": 2.0,
        "SCLS": "C0052211",
        "FMTA": "R23123449",
        "distance_to_zone_m": 0.0,
        "inside_zone_length_m": 109.249
      },
      "geometry": {
        "type": "LineString",
        "coordinates": [
          [
            128.13214551786763,
            37.053197514661726
          ],
          [
            128.13207598039415,
            37.05315851296994
          ],
          [
            128.13192579009353,
            37.05309902614212
          ],
          [
            128.13173029957994,
            37.05301956512057
          ],
          [
            128.13159082633322,
            37.052956912699784
          ],
          [
            128.1314679350128,
            37.05290915885607
          ],
          [
            128.13135292410016,
            37.05287020226784
          ],
          [
            128.1312223657388,
            37.052834196611315
          ],
          [
            128.13115658045822,
            37.052816323521675
          ],
          [
            128.13114648350015,
            37.0528144482013
          ],
          [
            128.13112863719445,
            37.05281197409898
          ],
          [
            128.13111986508085,
            37.05281227136121
          ],
          [
            128.13111412369528,
            37.0528129491244
          ],
          [
            128.13110792717202,
            37.05281407641276
          ],
          [
            128.13109926224664,
            37.05281482291176
          ],
          [
            128.1310826456136,
            37.0528130787209
          ],
          [
            128.13105741525746,
            37.052807398776785
          ],
          [
            128.13103454531677,
            37.052801825259095
          ],
          [
            128.13083822797955,
            37.05275542402274
          ]
        ]
      }
    },
    {
      "type": "Feature",
      "properties": {
        "UFID": "100037813076C00510100000001023474",
        "NAME": "",
        "DIVI": "BKD001",
        "QUAL": "BKQ001",
        "UDDI": "BKU001",
        "LENG": 107.410003662,
        "HEIG": 2.0,
        "SCLS": "C0052211",
        "FMTA": "R23123474",
        "distance_to_zone_m": 0.0,
        "inside_zone_length_m": 103.596
      },
      "geometry": {
        "type": "LineString",
        "coordinates": [
          [
            128.13714942421507,
            37.05807189155055
          ],
          [
            128.13714908233817,
            37.058046071345885
          ],
          [
            128.13712783770472,
            37.05795358360442
          ],
          [
            128.13709840860062,
            37.057874834167286
          ],
          [
            128.1370627165241,
            37.05780019096586
          ],
          [
            128.1370200392435,
            37.05772559788272
          ],
          [
            128.13697896405526,
            37.05767352083327
          ],
          [
            128.1369492438601,
            37.05763472650309
          ],
          [
            128.13690661044168,
            37.05760478221735
          ],
          [
            128.13685466042708,
            37.05758311968956
          ],
          [
            128.13681307170975,
            37.05757131532199
          ],
          [
            128.13678173967293,
            37.05755483430871
          ],
          [
            128.13673415665383,
            37.0575307027366
          ],
          [
            128.1366886784915,
            37.05750326155661
          ],
          [
            128.1366383947267,
            37.05746926218612
          ],
          [
            128.1365924328632,
            37.05742349501506
          ],
          [
            128.1365589996064,
            37.0573749301995
          ],
          [
            128.13651700914707,
            37.057301145419984
          ]
        ]
      }
    },
    {
      "type": "Feature",
      "properties": {
        "UFID": "100037813076C00510100000001023482",
        "NAME": "",
        "DIVI": "BKD001",
        "QUAL": "BKQ001",
        "UDDI": "BKU001",
        "LENG": 127.830001831,
        "HEIG": 1.0,
        "SCLS": "C0052211",
        "FMTA": "R23123482",
        "distance_to_zone_m": 18.976,
        "inside_zone_length_m": 0.0
      },
      "geometry": {
        "type": "LineString",
        "coordinates": [
          [
            128.1344884012918,
            37.06533997279664
          ],
          [
            128.13446032730042,
            37.06534346181265
          ],
          [
            128.13439093814833,
            37.06535671059311
          ],
          [
            128.134323446242,
            37.065370053751764
          ],
          [
            128.13431293376988,
            37.06537414291104
          ],
          [
            128.1343052181656,
            37.06537694250855
          ],
          [
            128.13429940248216,
            37.0653793443363
          ],
          [
            128.13426189275285,
            37.065391955630226
          ],
          [
            128.13414715559404,
            37.065466427651586
          ],
          [
            128.1340822699336,
            37.065498298903265
          ],
          [
            128.1340683957513,
            37.06550582418732
          ],
          [
            128.13406156642492,
            37.06551023617489
          ],
          [
            128.13405216177816,
            37.06551687941573
          ],
          [
            128.13397484433443,
            37.065587686193595
          ],
          [
            128.13392991404265,
            37.065613432840166
          ],
          [
            128.1338927682252,
            37.06563248901243
          ],
          [
            128.13386633294866,
            37.06564016252628
          ],
          [
            128.1338606366047,
            37.06564014789523
          ],
          [
            128.13375742931777,
            37.06563550539299
          ],
          [
            128.13375017393113,
            37.06563494922156
          ],
          [
            128.13366609397914,
            37.065635767995154
          ],
          [
            128.13359009910295,
            37.065638441909215
          ],
          [
            128.13356213107005,
            37.06563845968871
          ],
          [
            128.13354265294475,
            37.06563653192828
          ],
          [
            128.1335370192765,
            37.0656356678114
          ],
          [
            128.13349963077286,
            37.065630965587694
          ],
          [
            128.13340690235387,
            37.06561601408975
          ],
          [
            128.13336159718776,
            37.06560914562284
          ],
          [
            128.13333318720228,
            37.06560768738295
          ],
          [
            128.1333070070402,
            37.06560681577253
          ],
          [
            128.13327635847983,
            37.06560669455503
          ],
          [
            128.1332590504783,
            37.065606830225796
          ],
          [
            128.133233753927,
            37.06560833182202
          ],
          [
            128.13320543930064,
            37.06561076716728
          ],
          [
            128.13318276210194,
            37.06561370785543
          ],
          [
            128.13317673825748,
            37.065614619794374
          ]
        ]
      }
    },
    {
      "type": "Feature",
      "properties": {
        "UFID": "100037813076C00510100000001023631",
        "NAME": "",
        "DIVI": "BKD001",
        "QUAL": "BKQ001",
        "UDDI": "BKU001",
        "LENG": 125.580001831,
        "HEIG": 2.0,
        "SCLS": "C0052211",
        "FMTA": "R23123631",
        "distance_to_zone_m": 0.0,
        "inside_zone_length_m": 101.28
      },
      "geometry": {
        "type": "LineString",
        "coordinates": [
          [
            128.13525598963827,
            37.054655327715146
          ],
          [
            128.13533900196776,
            37.054751169168284
          ],
          [
            128.13541669593653,
            37.054839735748565
          ],
          [
            128.13544510570043,
            37.05488251276687
          ],
          [
            128.1354879406302,
            37.054946180418725
          ],
          [
            128.13554585826907,
            37.05501881479648
          ],
          [
            128.13557168117993,
            37.05506197161758
          ],
          [
            128.13559342313567,
            37.05511301157483
          ],
          [
            128.13561766110595,
            37.055165704878135
          ],
          [
            128.13568497830195,
            37.05526829526399
          ],
          [
            128.1357478014833,
            37.05535674028468
          ],
          [
            128.13578236317576,
            37.055385298614134
          ],
          [
            128.13581597023094,
            37.055398784011004
          ],
          [
            128.13589302009157,
            37.0554646018969
          ],
          [
            128.1359252292021,
            37.055494259905906
          ],
          [
            128.1359697396604,
            37.05557195529154
          ],
          [
            128.1359929298608,
            37.05560619126246
          ]
        ]
      }
    },
    {
      "type": "Feature",
      "properties": {
        "UFID": "100037813085C00510100000001023822",
        "NAME": "",
        "DIVI": "BKD001",
        "QUAL": "BKQ004",
        "UDDI": "BKU001",
        "LENG": 38.9000015259,
        "HEIG": 2.0,
        "SCLS": "C0052211",
        "FMTA": "R23123822",
        "distance_to_zone_m": 0.0,
        "inside_zone_length_m": 38.85
      },
      "geometry": {
        "type": "LineString",
        "coordinates": [
          [
            128.12115774313065,
            37.045688474092806
          ],
          [
            128.12104869474376,
            37.04570718337729
          ],
          [
            128.12095373294108,
            37.04573147435258
          ],
          [
            128.12087874206912,
            37.045764745265124
          ],
          [
            128.1208499542918,
            37.04579604903745
          ],
          [
            128.12084209869488,
            37.045808542380186
          ],
          [
            128.12083207007856,
            37.045830102772406
          ],
          [
            128.12082745261898,
            37.04584363022665
          ],
          [
            128.12082290404464,
            37.045865616258105
          ]
        ]
      }
    },
    {
      "type": "Feature",
      "properties": {
        "UFID": "100037813085C00510100000001023851",
        "NAME": "",
        "DIVI": "BKD001",
        "QUAL": "BKQ001",
        "UDDI": "BKU001",
        "LENG": 142.149993896,
        "HEIG": 1.5,
        "SCLS": "C0052211",
        "FMTA": "R23123851",
        "distance_to_zone_m": 0.0,
        "inside_zone_length_m": 142.087
      },
      "geometry": {
        "type": "LineString",
        "coordinates": [
          [
            128.121747281296,
            37.04568825256017
          ],
          [
            128.1218269163503,
            37.04571925424032
          ],
          [
            128.122019371402,
            37.04578763228497
          ],
          [
            128.12223540249352,
            37.04585745213722
          ],
          [
            128.1224200937444,
            37.04592176517347
          ],
          [
            128.1224493517702,
            37.04593752085852
          ],
          [
            128.12247384433076,
            37.04595497728151
          ],
          [
            128.12254899242023,
            37.04606013129193
          ],
          [
            128.12267563760696,
            37.04622351181249
          ],
          [
            128.12275985971073,
            37.0463418040468
          ],
          [
            128.12284929178543,
            37.04651633918032
          ]
        ]
      }
    },
    {
      "type": "Feature",
      "properties": {
        "UFID": "100037813076C00510100000001023969",
        "NAME": "",
        "DIVI": "BKD001",
        "QUAL": "BKQ001",
        "UDDI": "BKU001",
        "LENG": 155.899993896,
        "HEIG": 2.0,
        "SCLS": "C0052211",
        "FMTA": "R23123969",
        "distance_to_zone_m": 0.0,
        "inside_zone_length_m": 155.823
      },
      "geometry": {
        "type": "LineString",
        "coordinates": [
          [
            128.1347238531091,
            37.065261122695055
          ],
          [
            128.1347684735072,
            37.065258718718056
          ],
          [
            128.13478547842936,
            37.065274731545585
          ],
          [
            128.13484110529348,
            37.06532711359975
          ],
          [
            128.13487340910336,
            37.065377663482366
          ],
          [
            128.134957229864,
            37.065480733634374
          ],
          [
            128.13500835731696,
            37.0655340239831
          ],
          [
            128.13501618558465,
            37.065549598235336
          ],
          [
            128.1350356576422,
            37.0656012606064
          ],
          [
            128.1350470123462,
            37.065636133358204
          ],
          [
            128.13510459760175,
            37.06574647947688
          ],
          [
            128.13516890059634,
            37.065846569319795
          ],
          [
            128.1352139637237,
            37.06591907060968
          ],
          [
            128.13523681398598,
            37.06596925455619
          ],
          [
            128.1352538183167,
            37.06599474211747
          ],
          [
            128.13527623804254,
            37.066011639008565
          ],
          [
            128.13528946688888,
            37.066017104665356
          ],
          [
            128.13530733310563,
            37.06602211821128
          ],
          [
            128.1353575307334,
            37.06603047771431
          ],
          [
            128.1354641214205,
            37.06604931965692
          ],
          [
            128.13556005671043,
            37.066065094283
          ],
          [
            128.13563221968056,
            37.06608090247469
          ],
          [
            128.13569365717228,
            37.06610465911242
          ],
          [
            128.1357412871116,
            37.06613124445412
          ],
          [
            128.13577964023054,
            37.0661579425992
          ],
          [
            128.13583911774236,
            37.066207771450905
          ]
        ]
      }
    },
    {
      "type": "Feature",
      "properties": {
        "UFID": "100037813076C00510100000001024028",
        "NAME": "",
        "DIVI": "BKD001",
        "QUAL": "BKQ001",
        "UDDI": "BKU001",
        "LENG": 106.309997559,
        "HEIG": 2.0,
        "SCLS": "C0052211",
        "FMTA": "R23124028",
        "distance_to_zone_m": 0.0,
        "inside_zone_length_m": 98.508
      },
      "geometry": {
        "type": "LineString",
        "coordinates": [
          [
            128.13647488415745,
            37.05731223353939
          ],
          [
            128.13648557947437,
            37.057347281011495
          ],
          [
            128.13650252211667,
            37.05738697783307
          ],
          [
            128.13653360324898,
            37.05742662132346
          ],
          [
            128.13657090237132,
            37.05746820644751
          ],
          [
            128.13661439804093,
            37.05750997284332
          ],
          [
            128.1366542056186,
            37.05754418168953
          ],
          [
            128.1366769098223,
            37.057564833034064
          ],
          [
            128.13678823859928,
            37.05760264222655
          ],
          [
            128.13687306893186,
            37.057633055013675
          ],
          [
            128.13689660485736,
            37.0576424584535
          ],
          [
            128.13691023969855,
            37.05765292553862
          ],
          [
            128.1369412566334,
            37.05769184722733
          ],
          [
            128.13697995637094,
            37.05774809438845
          ],
          [
            128.13702867756476,
            37.05782937059985
          ],
          [
            128.1370539444055,
            37.057898489114244
          ],
          [
            128.1370772404131,
            37.05797267786996
          ],
          [
            128.13709466109108,
            37.05802510277055
          ],
          [
            128.13710525668196,
            37.058066336251954
          ]
        ]
      }
    },
    {
      "type": "Feature",
      "properties": {
        "UFID": "100037813085C00510100000001024083",
        "NAME": "",
        "DIVI": "BKD001",
        "QUAL": "BKQ004",
        "UDDI": "BKU001",
        "LENG": 78.3000030518,
        "HEIG": 2.0,
        "SCLS": "C0052211",
        "FMTA": "R23124083",
        "distance_to_zone_m": 0.0,
        "inside_zone_length_m": 78.282
      },
      "geometry": {
        "type": "LineString",
        "coordinates": [
          [
            128.11356311426198,
            37.043189776899325
          ],
          [
            128.1136550769788,
            37.04331408694288
          ],
          [
            128.1137471677786,
            37.04343722800584
          ],
          [
            128.11382377508434,
            37.04356746036162
          ],
          [
            128.1138817387499,
            37.04369638291256
          ],
          [
            128.11395584515176,
            37.04381929775205
          ]
        ]
      }
    },
    {
      "type": "Feature",
      "properties": {
        "UFID": "100037813085C00510100000001024245",
        "NAME": "",
        "DIVI": "BKD001",
        "QUAL": "BKQ004",
        "UDDI": "BKU001",
        "LENG": 59.9000015259,
        "HEIG": 2.0,
        "SCLS": "C0052211",
        "FMTA": "R23124245",
        "distance_to_zone_m": 0.0,
        "inside_zone_length_m": 34.139
      },
      "geometry": {
        "type": "LineString",
        "coordinates": [
          [
            128.11324082186016,
            37.04097538126945
          ],
          [
            128.11321256370942,
            37.041015103372466
          ],
          [
            128.11320876006047,
            37.04102117518137
          ],
          [
            128.11319205808778,
            37.041052073923446
          ],
          [
            128.11318072883276,
            37.04107709286195
          ],
          [
            128.11317016450877,
            37.041106901610505
          ],
          [
            128.1131532794052,
            37.04115837896409
          ],
          [
            128.1131369886968,
            37.041223365565095
          ],
          [
            128.1131294161045,
            37.04126667657911
          ],
          [
            128.1131284136625,
            37.04128129381647
          ],
          [
            128.11313232953188,
            37.04134566578735
          ],
          [
            128.11313579684625,
            37.041371318575756
          ],
          [
            128.1131440553695,
            37.04141022455545
          ],
          [
            128.11316861447781,
            37.04149638539013
          ]
        ]
      }
    },
    {
      "type": "Feature",
      "properties": {
        "UFID": "100037813076C00510100000001024266",
        "NAME": "",
        "DIVI": "BKD001",
        "QUAL": "BKQ001",
        "UDDI": "BKU001",
        "LENG": 128.850006104,
        "HEIG": 1.0,
        "SCLS": "C0052211",
        "FMTA": "R23124266",
        "distance_to_zone_m": 17.902,
        "inside_zone_length_m": 0.0
      },
      "geometry": {
        "type": "LineString",
        "coordinates": [
          [
            128.1331703820464,
            37.06557283875511
          ],
          [
            128.13321568351805,
            37.06556086407757
          ],
          [
            128.13325243971647,
            37.0655555423952
          ],
          [
            128.13326310159013,
            37.065555613476604
          ],
          [
            128.13339438210977,
            37.06557723885402
          ],
          [
            128.13350691429704,
            37.06559622210442
          ],
          [
            128.13353591976625,
            37.06560273768155
          ],
          [
            128.13354306302867,
            37.06560333773304
          ],
          [
            128.13368676741695,
            37.06560235557636
          ],
          [
            128.13374031695253,
            37.06560020715959
          ],
          [
            128.1337563958487,
            37.065599978829596
          ],
          [
            128.1337797890516,
            37.06559927693359
          ],
          [
            128.13383790885442,
            37.06559861843539
          ],
          [
            128.13385684162384,
            37.06559691995372
          ],
          [
            128.133868738691,
            37.06559565208472
          ],
          [
            128.13388444098075,
            37.06559180024766
          ],
          [
            128.13389215585815,
            37.06558917916205
          ],
          [
            128.13393079910907,
            37.06557245506764
          ],
          [
            128.13397094784108,
            37.06554172930519
          ],
          [
            128.13401150744403,
            37.06550550268467
          ],
          [
            128.1340416346311,
            37.06548218062329
          ],
          [
            128.1341255587417,
            37.065435637099924
          ],
          [
            128.13422684246532,
            37.065375180162825
          ],
          [
            128.13429624994944,
            37.06532900439192
          ],
          [
            128.1344704269958,
            37.06530196961662
          ],
          [
            128.13447344013272,
            37.06530206707841
          ],
          [
            128.13448827488318,
            37.065301838092864
          ]
        ]
      }
    },
    {
      "type": "Feature",
      "properties": {
        "UFID": "100037813076C00510100000001024303",
        "NAME": "",
        "DIVI": "BKD001",
        "QUAL": "BKQ001",
        "UDDI": "BKU001",
        "LENG": 66.5999984741,
        "HEIG": 2.0,
        "SCLS": "C0052211",
        "FMTA": "R23124303",
        "distance_to_zone_m": 0.0,
        "inside_zone_length_m": 50.607
      },
      "geometry": {
        "type": "LineString",
        "coordinates": [
          [
            128.13763354276895,
            37.05892228746845
          ],
          [
            128.1375926966526,
            37.058829029909596
          ],
          [
            128.13755396488656,
            37.0587663875698
          ],
          [
            128.13750150082961,
            37.05871432234504
          ],
          [
            128.1373883590021,
            37.058628350865966
          ],
          [
            128.13731479323366,
            37.058554290742634
          ],
          [
            128.13719201702003,
            37.05844756969505
          ]
        ]
      }
    },
    {
      "type": "Feature",
      "properties": {
        "UFID": "100037813076C00510100000001024324",
        "NAME": "",
        "DIVI": "BKD001",
        "QUAL": "BKQ001",
        "UDDI": "BKU001",
        "LENG": 8.97999954224,
        "HEIG": 2.0,
        "SCLS": "C0052211",
        "FMTA": "R23124324",
        "distance_to_zone_m": 0.0,
        "inside_zone_length_m": 8.981
      },
      "geometry": {
        "type": "LineString",
        "coordinates": [
          [
            128.12689021713635,
            37.05104894180875
          ],
          [
            128.12684686248613,
            37.051115930982434
          ],
          [
            128.12684415372112,
            37.051118723472335
          ],
          [
            128.1268417411751,
            37.05111897149047
          ]
        ]
      }
    },
    {
      "type": "Feature",
      "properties": {
        "UFID": "100037813076C00510100000001024341",
        "NAME": "",
        "DIVI": "BKD001",
        "QUAL": "BKQ001",
        "UDDI": "BKU001",
        "LENG": 42.7900009155,
        "HEIG": 2.0,
        "SCLS": "C0052211",
        "FMTA": "R23124341",
        "distance_to_zone_m": 0.0,
        "inside_zone_length_m": 42.704
      },
      "geometry": {
        "type": "LineString",
        "coordinates": [
          [
            128.12697476519213,
            37.05103287249479
          ],
          [
            128.12698071469734,
            37.05100774280727
          ],
          [
            128.1269972770674,
            37.05092666716926
          ],
          [
            128.1270044302587,
            37.05087533223913
          ],
          [
            128.1270015391491,
            37.05086142598398
          ],
          [
            128.12694257041815,
            37.050729770594664
          ],
          [
            128.12693652124685,
            37.05071721603017
          ],
          [
            128.1269366175106,
            37.05068967983477
          ],
          [
            128.12693566345445,
            37.05066830589059
          ],
          [
            128.12693477056374,
            37.05065915307996
          ]
        ]
      }
    },
    {
      "type": "Feature",
      "properties": {
        "UFID": "100037813085C00510100000001024357",
        "NAME": "",
        "DIVI": "BKD001",
        "QUAL": "BKQ004",
        "UDDI": "BKU001",
        "LENG": 52.5999984741,
        "HEIG": 2.0,
        "SCLS": "C0052211",
        "FMTA": "R23124357",
        "distance_to_zone_m": 0.0,
        "inside_zone_length_m": 52.617
      },
      "geometry": {
        "type": "LineString",
        "coordinates": [
          [
            128.11419609035258,
            37.043980847486594
          ],
          [
            128.11440427851076,
            37.04442481415818
          ]
        ]
      }
    },
    {
      "type": "Feature",
      "properties": {
        "UFID": "100037813085C00510100000001024521",
        "NAME": "",
        "DIVI": "BKD001",
        "QUAL": "BKQ004",
        "UDDI": "BKU001",
        "LENG": 30.0,
        "HEIG": 2.0,
        "SCLS": "C0052211",
        "FMTA": "R23124521",
        "distance_to_zone_m": 0.0,
        "inside_zone_length_m": 27.716
      },
      "geometry": {
        "type": "LineString",
        "coordinates": [
          [
            128.12082818484404,
            37.04571674953631
          ],
          [
            128.1208499583857,
            37.04570210648759
          ],
          [
            128.1209718301531,
            37.045655380797406
          ],
          [
            128.121125121634,
            37.04562824063616
          ],
          [
            128.12114201242863,
            37.04562851998608
          ]
        ]
      }
    },
    {
      "type": "Feature",
      "properties": {
        "UFID": "100037813076C00510100000001024902",
        "NAME": "",
        "DIVI": "BKD001",
        "QUAL": "BKQ001",
        "UDDI": "BKU001",
        "LENG": 18.8999996185,
        "HEIG": 2.0,
        "SCLS": "C0052211",
        "FMTA": "R23124902",
        "distance_to_zone_m": 0.0,
        "inside_zone_length_m": 6.645
      },
      "geometry": {
        "type": "LineString",
        "coordinates": [
          [
            128.1360233422976,
            37.06690524984111
          ],
          [
            128.13600326101457,
            37.066912097414125
          ],
          [
            128.1359910585797,
            37.06692127076319
          ],
          [
            128.13598209228294,
            37.06693353124159
          ],
          [
            128.13597118618887,
            37.06695839311862
          ],
          [
            128.13596085793145,
            37.06697782536349
          ],
          [
            128.13590707266818,
            37.06704266061867
          ]
        ]
      }
    },
    {
      "type": "Feature",
      "properties": {
        "UFID": "100037813085C00510100000001024907",
        "NAME": "",
        "DIVI": "BKD001",
        "QUAL": "BKQ001",
        "UDDI": "BKU001",
        "LENG": 183.0,
        "HEIG": 2.0,
        "SCLS": "C0052211",
        "FMTA": "R23124907",
        "distance_to_zone_m": 0.0,
        "inside_zone_length_m": 177.171
      },
      "geometry": {
        "type": "LineString",
        "coordinates": [
          [
            128.11353046878887,
            37.043132530540724
          ],
          [
            128.1134870880571,
            37.04306988788198
          ],
          [
            128.11343211765364,
            37.043001452195725
          ],
          [
            128.11337801770588,
            37.042925886240724
          ],
          [
            128.11333404085443,
            37.04283090808514
          ],
          [
            128.11330945337264,
            37.042766460910094
          ],
          [
            128.11328701561956,
            37.04266855714996
          ],
          [
            128.1132786606959,
            37.04257072391618
          ],
          [
            128.11327417472347,
            37.042440816107806
          ],
          [
            128.11328148896996,
            37.0422984248014
          ],
          [
            128.11329579335148,
            37.04214348471606
          ],
          [
            128.11329953222037,
            37.042041426191744
          ],
          [
            128.11329348762985,
            37.04190270240656
          ],
          [
            128.1132876757455,
            37.0418003137483
          ],
          [
            128.11327088031248,
            37.04171909587658
          ],
          [
            128.1132227092307,
            37.04157775124174
          ],
          [
            128.11319417169685,
            37.041542217733856
          ]
        ]
      }
    },
    {
      "type": "Feature",
      "properties": {
        "UFID": "100037813076C00510100000001024909",
        "NAME": "",
        "DIVI": "BKD001",
        "QUAL": "BKQ001",
        "UDDI": "BKU001",
        "LENG": 185.820007324,
        "HEIG": 2.0,
        "SCLS": "C0052211",
        "FMTA": "R23124909",
        "distance_to_zone_m": 0.0,
        "inside_zone_length_m": 185.245
      },
      "geometry": {
        "type": "LineString",
        "coordinates": [
          [
            128.12882697609987,
            37.052003482619135
          ],
          [
            128.12884758105454,
            37.05200215918636
          ],
          [
            128.12889086883067,
            37.051994411877544
          ],
          [
            128.12895794556044,
            37.05197322986843
          ],
          [
            128.12902153911247,
            37.05194467554717
          ],
          [
            128.12913944761473,
            37.05187515117291
          ],
          [
            128.1292855530519,
            37.05179447167868
          ],
          [
            128.1293821293557,
            37.05173889521161
          ],
          [
            128.12943140617264,
            37.0517118751215
          ],
          [
            128.1294639529075,
            37.051702978491846
          ],
          [
            128.1294937036532,
            37.051704687473574
          ],
          [
            128.12955189148468,
            37.05171449443973
          ],
          [
            128.12962335347413,
            37.051733014365276
          ],
          [
            128.1296740226413,
            37.05175406222012
          ],
          [
            128.12972761758164,
            37.05178960468095
          ],
          [
            128.12984771549787,
            37.05187257202485
          ],
          [
            128.1299668408045,
            37.051953627990805
          ],
          [
            128.13006982338646,
            37.052030081285736
          ],
          [
            128.13014699822767,
            37.052098835531865
          ],
          [
            128.1302161871312,
            37.05217561963254
          ],
          [
            128.1302889829442,
            37.052263149284975
          ],
          [
            128.13036688006193,
            37.05235309282981
          ],
          [
            128.13042131277805,
            37.05241491051491
          ]
        ]
      }
    },
    {
      "type": "Feature",
      "properties": {
        "UFID": "100037813076C00510100000001024970",
        "NAME": "",
        "DIVI": "BKD001",
        "QUAL": "BKQ001",
        "UDDI": "BKU001",
        "LENG": 73.0999984741,
        "HEIG": 2.0,
        "SCLS": "C0052211",
        "FMTA": "R23124970",
        "distance_to_zone_m": 0.0,
        "inside_zone_length_m": 73.096
      },
      "geometry": {
        "type": "LineString",
        "coordinates": [
          [
            128.13589032293484,
            37.06623951891498
          ],
          [
            128.13592439345837,
            37.06628786497776
          ],
          [
            128.13594474365613,
            37.06632362147662
          ],
          [
            128.13597581869297,
            37.066390417571995
          ],
          [
            128.13600505647074,
            37.066465381337935
          ],
          [
            128.13602394968854,
            37.06654029599919
          ],
          [
            128.1360451996006,
            37.06665064896646
          ],
          [
            128.1360466517286,
            37.06668310663205
          ],
          [
            128.13604259609806,
            37.06670662112158
          ],
          [
            128.136027074258,
            37.066737756380824
          ],
          [
            128.13601535753116,
            37.06676656721209
          ],
          [
            128.1360078302094,
            37.066795698117645
          ],
          [
            128.13600596365748,
            37.06681868705998
          ],
          [
            128.13601058828084,
            37.06683906674894
          ],
          [
            128.13602216376665,
            37.06686446972481
          ],
          [
            128.13602790633848,
            37.06686758487984
          ]
        ]
      }
    },
    {
      "type": "Feature",
      "properties": {
        "UFID": "100037813085C00510100000001025095",
        "NAME": "",
        "DIVI": "BKD001",
        "QUAL": "BKQ004",
        "UDDI": "BKU001",
        "LENG": 71.0999984741,
        "HEIG": 2.0,
        "SCLS": "C0052211",
        "FMTA": "R23125095",
        "distance_to_zone_m": 0.0,
        "inside_zone_length_m": 44.418
      },
      "geometry": {
        "type": "LineString",
        "coordinates": [
          [
            128.11345328778552,
            37.04317111567533
          ],
          [
            128.11337269357884,
            37.043055088457784
          ],
          [
            128.11329793489048,
            37.042930276405585
          ],
          [
            128.11322053502778,
            37.042800577822916
          ],
          [
            128.11319063504553,
            37.042723494901594
          ],
          [
            128.11317422067305,
            37.04265597487409
          ],
          [
            128.1131660039005,
            37.042579775050356
          ]
        ]
      }
    },
    {
      "type": "Feature",
      "properties": {
        "UFID": "100037813076C00510100000001025100",
        "NAME": "",
        "DIVI": "BKD001",
        "QUAL": "BKQ001",
        "UDDI": "BKU001",
        "LENG": 23.5,
        "HEIG": 1.0,
        "SCLS": "C0052211",
        "FMTA": "R23125100",
        "distance_to_zone_m": 0.0,
        "inside_zone_length_m": 8.856
      },
      "geometry": {
        "type": "LineString",
        "coordinates": [
          [
            128.1345269892041,
            37.06530124159106
          ],
          [
            128.13455088002226,
            37.06530087401169
          ],
          [
            128.134596277427,
            37.065298570507196
          ],
          [
            128.1346303034472,
            37.0652914980287
          ],
          [
            128.13464376668935,
            37.06528920490355
          ],
          [
            128.13468941417477,
            37.0652796562323
          ],
          [
            128.13471920056537,
            37.06527216832422
          ],
          [
            128.1347703935184,
            37.06527234148555
          ],
          [
            128.1347828940712,
            37.0652735798426
          ],
          [
            128.13478547842936,
            37.065274731545585
          ],
          [
            128.13478612762523,
            37.06527502103217
          ]
        ]
      }
    }
  ]
}
